# From MPEC 2016-EI8
332P-B/Ikeya-Murakami,e,9.3805,3.8028,152.3711,3.082329,0.1821317,0.48970701,359.9699,03/17.0/2016,2000,g 19.0,4.0
# From MPEC 2016-K18
332P-C/Ikeya-Murakami,e,9.3838,152.3031,3.7339,3.086383,0.1817730,0.48968802,221.1752,12/17.0/2024,2000,g 16.5,4.0
# From MPEC 2016-ED0
332P-D/Ikeya-Murakami,e,9.3761,3.7923,152.4393,3.081138,0.1822373,0.48977814,359.9486,03/17.0/2016,2000,g 19.0,4.0
# From MPEC 2016-ED0
332P-E/Ikeya-Murakami,e,9.3774,3.8228,152.2825,3.079877,0.1823493,0.48922008,359.9889,03/17.0/2016,2000,g 21.0,4.0
# From MPEC 2016-ED0
332P-F/Ikeya-Murakami,e,9.5293,3.4757,152.8203,3.163214,0.1751908,0.49918860,359.8501,03/17.0/2016,2000,g 21.0,4.0
# From MPEC 2016-ED0
332P-G/Ikeya-Murakami,e,9.2523,3.6955,154.4000,3.050519,0.1849880,0.49200362,359.9006,03/19.0/2016,2000,g 19.0,4.0
# From MPC100285
332P-H/Ikeya-Murakami,e,9.3843,152.3037,3.7336,3.086564,0.1817570,0.48972382,221.0904,12/17.0/2024,2000,g 19.0,4.0
# From MPEC 2016-ED0
332P-I/Ikeya-Murakami,e,9.3791,3.8048,152.3297,3.081767,0.1821815,0.48955490,359.9360,03/17.0/2016,2000,g 20.5,2.0
# From MPEC 2016-EI8
332P-J/Ikeya-Murakami,e,9.4296,3.6729,152.7712,3.115165,0.1792596,0.49429435,359.8613,03/17.0/2016,2000,g 20.5,2.0
# From MPEC 2024-X74
333P/LINEAR,e,132.0222,115.7059,26.0172,4.220718,0.1136644,0.73631442,2.0121,12/17.0/2024,2000,g 15.0,4.0
# From MPEC 2023-J29
334P/NEAT,e,20.3685,90.4159,90.0403,6.826590,0.0552584,0.35157636,152.1535,12/17.0/2024,2000,g 10.5,4.0
# From MPEC 2023-M14
335P/Gibbs,e,7.2961,330.8002,162.3080,3.577366,0.1456663,0.54673366,124.9373,12/17.0/2024,2000,g 16.8,4.0
# From MPC105244
336P/McNaught,e,17.8407,298.1951,308.6235,5.037558,0.0871714,0.44477571,251.3523,12/17.0/2024,2000,g 13.5,4.0
# From MPEC 2024-A43
337P/WISE,e,16.1870,103.3057,164.3644,3.305774,0.1639813,0.49771129,146.9087,12/17.0/2024,2000,g 17.0,4.0
# From MPEC 2024-X74
338P/McNaught,e,25.3817,9.7869,4.6044,3.894811,0.1282255,0.41257565,17.3991,12/17.0/2024,2000,g 12.0,4.0
# From MPC101101
339P/Gibbs,e,5.7336,27.4676,172.6790,3.699021,0.1385396,0.63567768,65.6783,12/17.0/2024,2000,g 17.0,4.0
# From MPC133426
340P/Boattini,e,2.0789,291.6598,36.0720,4.247749,0.1125812,0.28012782,331.2604,12/17.0/2024,2000,g 14.3,4.0
# From MPEC 2023-J29
341P/Gibbs,e,3.7964,29.9563,312.3563,4.286047,0.1110756,0.41521362,345.9270,12/17.0/2024,2000,g 12.5,4.0
# From MPC101101
342P/SOHO,e,11.6956,73.3243,27.6335,3.040990,0.1858582,0.98296843,0.0000,02/07.6075/2027,2000,g  9.0,4.0
# From MPEC 2024-PC5
343P/NEAT-LONEOS,e,5.5978,257.0536,137.6064,5.457519,0.0773057,0.58506144,222.1623,12/17.0/2024,2000,g 14.0,4.0
# From MPEC 2023-J29
344P/Read,e,3.4996,273.1013,140.6003,4.856007,0.0921054,0.42381283,272.5318,12/17.0/2024,2000,g 13.0,4.0
# From MPEC 2024-TP3
345P/LINEAR,e,2.7281,154.5118,196.6958,4.031420,0.1217634,0.22125703,13.1863,12/17.0/2024,2000,g 12.0,4.0
# From MPEC 2022-K19
346P/Catalina,e,22.2194,102.4582,336.0495,4.469133,0.1043204,0.50393233,298.2224,12/17.0/2024,2000,g 14.0,4.0
# From MPEC 2024-RQ6
347P/PANSTARRS,e,11.7660,260.9915,98.1843,3.602281,0.1441577,0.38684933,74.4652,12/17.0/2024,2000,g 15.0,4.0
# From MPEC 2022-ED3
348P/PANSTARRS,e,17.7406,312.9176,135.7494,3.151716,0.1761503,0.30748872,182.7989,12/17.0/2024,2000,g 14.0,4.0
# From MPEC 2024-LE0
349P/Lemmon,e,5.4887,331.7423,255.7713,3.578295,0.1456095,0.29855880,29.7017,12/17.0/2024,2000,g 14.0,4.0
# From MPC111775
350P/McNaught,e,7.3638,65.2918,140.0468,4.081130,0.1195455,0.09460441,305.5566,12/17.0/2024,2000,g 14.0,4.0
# From MPC105244
351P/Wiegert-PANSTARRS,e,12.7745,352.6717,283.3013,4.440543,0.1053295,0.29470452,349.5393,12/17.0/2024,2000,g 12.5,4.0
# From MPEC 2023-J29
352P/Skiff,e,21.0085,28.0303,309.3963,6.654305,0.0574183,0.61632064,157.1548,12/17.0/2024,2000,g 13.2,4.0
# From MPEC 2020-AA5
353P/McNaught,e,28.4179,121.5147,230.4960,4.170635,0.1157180,0.46981682,295.0311,12/17.0/2024,2000,g 14.5,4.0
# From MPEC 2024-EF7
354P/LINEAR,e,5.2506,320.0644,132.8806,2.290137,0.2843884,0.12449654,122.2530,12/17.0/2024,2000,g 15.5,4.0
# From MPEC 2023-CD7
355P/LINEAR-NEAT,e,11.0460,51.4284,336.2846,3.468480,0.1525792,0.50806024,39.6220,12/17.0/2024,2000,g 15.5,2.0
# From MPEC 2022-F14
356P/WISE,e,9.6410,160.7981,226.1909,4.153191,0.1164478,0.35598843,296.8605,12/17.0/2024,2000,g 14.0,4.0
# From MPC114609
357P/Hill,e,6.3136,44.5754,1.4852,4.455343,0.1048051,0.43612116,250.3300,12/17.0/2024,2000,g 15.5,4.0
# From MPEC 2024-EF7
358P/PANSTARRS,e,11.0667,85.6669,299.4097,3.146746,0.1765678,0.23953628,71.1927,12/17.0/2024,2000,g 18.0,4.0
# From MPC110086
359P/LONEOS,e,10.2623,149.7565,200.3004,4.641777,0.0985548,0.32330377,263.3815,12/17.0/2024,2000,g 13.5,4.0
# From MPEC 2024-X74
360P/WISE,e,24.1090,2.1771,354.2890,3.697288,0.1386370,0.49917617,10.2903,12/17.0/2024,2000,g 19.5,6.0
# From MPEC 2023-CD7
361P/Spacewatch,e,13.8999,203.2432,219.1007,4.933068,0.0899556,0.43961845,211.8281,12/17.0/2024,2000,g 12.0,4.0
# From MPC114609
363P/Lemmon,e,5.3900,146.6324,340.8766,3.574333,0.1458517,0.51855148,4.9299,12/17.0/2024,2000,g 17.5,4.0
# From MPEC 2024-M41
364P/PANSTARRS,e,11.9918,46.0224,212.5484,2.896873,0.1998986,0.71965978,116.5644,12/17.0/2024,2000,g 17.0,2.0
# From MPC111775
365P/PANSTARRS,e,9.8502,86.6573,67.4157,3.156298,0.1757669,0.58153826,76.3823,12/17.0/2024,2000,g 17.0,4.0
# From MPC114610
366P/Spacewatch,e,8.8570,70.7227,153.0013,3.499598,0.1505487,0.34850102,353.2393,12/17.0/2024,2000,g 15.0,4.0
# From MPC112395
367P/Catalina,e,8.4596,58.6615,172.6942,3.511135,0.1498072,0.28001331,356.1699,12/17.0/2024,2000,g 17.5,2.0
# From MPC114610
368P/NEAT,e,15.4829,257.8538,118.9846,5.533982,0.0757090,0.62597867,172.9351,12/17.0/2024,2000,g 14.0,4.0
# From MPC114610
369P/Hill,e,10.3212,47.2927,13.2201,4.379031,0.1075566,0.55596528,242.0379,12/17.0/2024,2000,g 15.0,4.0
# From MPEC 2021-F20
370P/NEAT,e,19.4221,55.0828,356.7700,6.438842,0.0603243,0.61538799,143.5246,12/17.0/2024,2000,g 13.0,4.0
# From MPC114610
371P/LINEAR-Skiff,e,17.3853,67.2828,308.5733,4.180390,0.1153132,0.47674360,260.8516,12/17.0/2024,2000,g 16.0,4.0
# From MPEC 2020-K19
372P/McNaught,e,9.5056,27.5518,326.0089,4.511864,0.1028419,0.15145789,231.0162,12/17.0/2024,2000,g 13.5,4.0
# From MPEC 2021-F20
373P/Rinner,e,13.7702,231.9391,221.1007,3.797737,0.1331732,0.39377513,276.5141,12/17.0/2024,2000,g 14.5,4.0
# From MPC114610
374P/Larson,e,10.7624,7.8836,51.5539,4.971012,0.0889277,0.46376290,192.4044,12/17.0/2024,2000,g 14.0,4.0
# From MPEC 2021-F20
375P/Hill,e,17.3705,359.8586,119.4189,5.545916,0.0754647,0.66009839,164.9642,12/17.0/2024,2000,g 16.0,4.0
# From MPEC 2024-RQ6
376P/LONEOS,e,1.1662,312.8523,285.3830,5.756321,0.0713652,0.51371620,137.1039,12/17.0/2024,2000,g 12.5,4.0
# From MPEC 2022-N37
377P/Scotti,e,9.0272,225.9876,354.8648,6.695727,0.0568863,0.25121828,92.2551,12/17.0/2024,2000,g  9.5,4.0
# From MPEC 2024-X74
378P/McNaught,e,19.1561,93.7962,193.3497,6.288943,0.0624939,0.46409224,95.6512,12/17.0/2024,2000,g 12.0,4.0
# From MPC115889
379P/Spacewatch,e,12.4366,30.4692,184.5805,3.485311,0.1514753,0.35019622,294.4734,12/17.0/2024,2000,g 15.0,4.0
# From MPEC 2023-C45
380P/PANSTARRS,e,8.0260,127.8350,87.8488,4.436033,0.1054902,0.33515963,219.6273,12/17.0/2024,2000,g 12.5,4.0
# From MPEC 2021-J28
381P/LINEAR-Spacewatch,e,28.3480,173.3085,173.8548,7.144773,0.0516085,0.68080435,98.5303,12/17.0/2024,2000,g 17.5,2.0
# From MPEC 2024-MB8
382P/Larson,e,8.2592,170.9603,162.1896,5.908078,0.0686333,0.26787369,77.9553,12/17.0/2024,2000,g  8.0,4.0
# From MPEC 2022-OB6
383P/Christensen,e,12.3189,207.8542,133.7409,3.548483,0.1474484,0.59859028,277.0538,12/17.0/2024,2000,g 18.0,4.0
# From MPEC 2024-X74
384P/Kowalski,e,7.2832,354.1940,37.7145,2.898486,0.1997318,0.61633238,17.7480,12/17.0/2024,2000,g 19.5,4.0
# From MPEC 2021-F20
385P/Hill,e,16.8243,357.0490,44.4424,4.288827,0.1109676,0.40202423,212.8033,12/17.0/2024,2000,g 13.0,4.0
# From MPEC 2021-L04
386P/PANSTARRS,e,15.2447,134.9156,353.0884,4.049599,0.1209445,0.41735268,191.0680,12/17.0/2024,2000,g 14.5,4.0
# From MPEC 2021-J28
387P/Boattini,e,8.9382,259.2382,162.8450,4.797215,0.0938038,0.73709538,180.6925,12/17.0/2024,2000,g 15.0,4.0
# From MPEC 2021-S45
388P/Gibbs,e,23.8844,37.0216,42.3452,5.240551,0.0821559,0.61939504,161.8976,12/17.0/2024,2000,g 13.0,4.0
# From MPEC 2022-OB6
389P/Siding Spring,e,160.0830,218.8682,249.3544,5.631239,0.0737561,0.70546407,133.7038,12/17.0/2024,2000,g 16.0,4.0
# From MPEC 2024-EF7
390P/Gibbs,e,18.5287,152.2177,232.5294,5.816673,0.0702574,0.70693750,121.5646,12/17.0/2024,2000,g 12.0,4.0
# From MPEC 2021-F20
391P/Kowalski,e,21.2579,124.7791,187.0646,4.690136,0.0970344,0.11850370,239.4663,12/17.0/2024,2000,g  8.0,4.0
# From MPEC 2021-J28
392P/LINEAR,e,4.9298,24.8247,71.9290,6.141512,0.0647577,0.68392775,111.3429,12/17.0/2024,2000,g 14.5,4.0
# From MPEC 2023-T65
393P/Spacewatch-Hill,e,16.7857,36.3975,329.2241,4.799066,0.0937495,0.11942516,175.6466,12/17.0/2024,2000,g 11.0,4.0
# From MPEC 2020-KB7
394P/PANSTARRS,e,8.5287,98.1153,54.4164,4.327413,0.1094868,0.36812409,201.8705,12/17.0/2024,2000,g 16.0,2.4
# From MPEC 2024-PC5
395P/Catalina-NEAT,e,3.5743,221.0016,100.5138,7.200818,0.0510072,0.41258261,52.5349,12/17.0/2024,2000,g 10.0,4.0
# From MPEC 2020-KB7
396P/,e,5.4414,136.6132,8.2989,6.798991,0.0555952,0.41678307,107.7147,12/17.0/2024,2000,g 12.0,4.0
# From MPEC 2022-OB6
397P/Lemmon,e,10.9221,8.2173,14.5824,3.831750,0.1314039,0.40479967,215.6018,12/17.0/2024,2000,g 12.0,4.0
# From MPEC 2021-L04
398P/Boattini,e,11.0258,320.1377,127.5336,3.124909,0.1784218,0.58373897,258.6742,12/17.0/2024,2000,g 15.5,4.0
# From MPEC 2023-XP6
399P/PANSTARRS,e,13.3188,207.1248,214.4273,3.793316,0.1334060,0.44741060,173.8870,12/17.0/2024,2000,g 14.0,4.0
# From MPEC 2024-TD8
400P/PANSTARRS,e,10.9257,176.3612,238.9278,3.561900,0.1466160,0.40970198,205.9406,12/17.0/2024,2000,g 15.5,2.8
# From MPEC 2022-K19
401P/McNaught,e,12.8005,359.9207,309.3860,5.777496,0.0709732,0.57844402,130.5765,12/17.0/2024,2000,g 12.5,4.0
# From MPEC 2024-LE0
